3CAT-5A                 
1 46292U 20061W   25186.92459949  .00008876  00000+0  26836-3 0  9991
2 46292  97.2936 247.1764 0000833 327.0644  33.0548 15.34446104267732
3CAT-5B                 
1 46293U 20061X   25186.72169674  .00009682  00000+0  28793-3 0  9993
2 46293  97.2942 247.4679 0000918 327.4645  32.6542 15.34944810267700
OSM-1 CICERO            
1 46294U 20061Y   25186.77018197  .00140337  00000+0  75402-3 0  9994
2 46294  97.3087 264.8091 0003972 202.4797 157.6298 15.79842034268853
NAPA-1                  
1 46320U 20061BA  25186.84877726  .00008491  00000+0  20481-3 0  9994
2 46320  97.2993 252.0421 0001667 130.4528 229.6864 15.41464114268032
JILIN-1 GAOFEN 3B       
1 46454U 20065A   25186.92842808  .00021748  00000+0  46004-3 0  9997
2 46454  97.2815 234.8865 0002568 318.4263  41.6790 15.45153351266319
JILIN-1 GAOFEN 3E       
1 46457U 20065D   25186.84866618  .00015141  00000+0  41099-3 0  9995
2 46457  97.2839 232.9409 0019973 353.1903   6.9067 15.37486488266161
JILIN-1 GAOFEN 3F       
1 46458U 20065E   25186.90410999  .00014120  00000+0  39186-3 0  9990
2 46458  97.2772 231.2878 0020904 338.6375  21.3995 15.36796489266162
JILIN-1 GAOFEN 3G       
1 46459U 20065F   25186.93357024  .00015985  00000+0  41315-3 0  9990
2 46459  97.2884 235.2619 0018875 236.6070 123.3370 15.39008121266248
JILIN-1 GAOFEN 3H       
1 46460U 20065G   25186.90322689  .00015909  00000+0  41612-3 0  9994
2 46460  97.2795 232.5190 0013231 162.8939 197.2755 15.38736528266223
JILIN-1 GAOFEN 3J       
1 46462U 20065J   25186.93488454  .00020587  00000+0  45096-3 0  9990
2 46462  97.2821 234.8308 0003340 328.0993  32.0053 15.44129778266314
HAIYANG-2C              
1 46469U 20066A   25186.87381924 -.00000040  00000+0  37835-4 0  9991
2 46469  65.9973 357.5284 0012138 291.8684  68.1093 13.83374676241885
HJ-2A                   
1 46478U 20067A   25186.87502295  .00000533  00000+0  83669-4 0  9990
2 46478  97.9133 267.8264 0001687 306.5669  53.5386 14.76546737257155
HJ-2B                   
1 46479U 20067B   25186.91111305  .00000557  00000+0  87081-4 0  9992
2 46479  97.9185 268.6403 0002441  80.8779 279.2707 14.76539910257160
GONETS-M 17             
1 46486U 20068A   25186.90615033  .00000038  00000+0  20464-3 0  9992
2 46486  82.4959 202.8978 0024390  72.2552 288.1187 12.42895733216147
GONETS-M 18             
1 46487U 20068B   25186.87371053  .00000002  00000+0 -54916-4 0  9992
2 46487  82.4916 202.1736 0021521  69.4822 290.8565 12.42885455216125
GONETS-M 19             
1 46488U 20068C   25186.84766914  .00000039  00000+0  20836-3 0  9996
2 46488  82.4938 202.5660 0015227  83.4797 276.8016 12.42859461216227
DEKART                  
1 46493U 20068H   25186.93298939  .00007732  00000+0  28901-3 0  9997
2 46493  97.8580 169.3669 0013003  70.6162 289.6480 15.27578520262744
NORBI                   
1 46494U 20068J   25186.87265080  .00009123  00000+0  29556-3 0  9995
2 46494  97.8557 172.0909 0011569  63.0955 297.1466 15.32200073262916
SALSAT                  
1 46495U 20068K   25186.89843738  .00005800  00000+0  24914-3 0  9991
2 46495  97.8610 166.1495 0013025  74.4632 285.8041 15.23035197262532
ICEYE-X6                
1 46497U 20068M   25186.86665374  .00002968  00000+0  23775-3 0  9994
2 46497  98.0657 160.4856 0003193 150.8568 209.2834 15.00969802261216
NETSAT-4                
1 46504U 20068U   25186.49568782  .00010643  00000+0  35845-3 0  9997
2 46504  97.8455 165.7984 0009063 108.7665 251.4559 15.30924455262515
NETSAT-3                
1 46505U 20068V   25186.90613547  .00009676  00000+0  34155-3 0  9991
2 46505  97.8456 165.1110 0008783 116.5341 243.6799 15.29427937262530
NETSAT-1                
1 46506U 20068W   25186.91096878  .00006620  00000+0  27200-3 0  9994
2 46506  97.8485 162.7492 0008065 128.9884 231.2072 15.24527578262377
NETSAT-2                
1 46507U 20068X   25186.49255362  .00011530  00000+0  39248-3 0  9994
2 46507  97.8455 165.2662 0007142 128.5836 231.6044 15.30570472262450
TIANQI-6                
1 46810U 20076D   25186.83829219  .00002969  00000+0  21433-3 0  9999
2 46810  35.0014   8.5782 0011615 359.6837   0.3863 15.03647960256351
KSM1-C                  
1 46906U 20081B   25186.94599401  .00005981  00000+0  28146-3 0  9995
2 46906  36.8953  24.3425 0003394 231.0854 128.9591 15.19266326256350
KSM1-D                  
1 46907U 20081C   25186.85456368  .00005366  00000+0  26149-3 0  9998
2 46907  36.8982  28.7527 0005378 239.1200 120.9018 15.18114407256326
KSM1-A                  
1 46912U 20081H   25186.88200330  .00005711  00000+0  27229-3 0  9997
2 46912  36.8978  25.1638 0004481 299.7081  60.3219 15.18838946256370
R2                      
1 46913U 20081J   25186.88247014  .00004599  00000+0  22146-3 0  9994
2 46913  36.9011  23.8445 0008895 253.5311 106.4459 15.18611303259195
KSM1-B                  
1 46914U 20081K   25186.88612011  .00005235  00000+0  25607-3 0  9991
2 46914  36.9031  28.4951 0007581 257.2980 102.6919 15.17990834255659
GONETS-M 20             
1 47227U 20091A   25186.94528951  .00000035  00000+0  18442-3 0  9998
2 47227  82.5042 157.6549 0019498 213.1815 146.8043 12.42850273208060
GONETS-M 21             
1 47228U 20091B   25186.92040906  .00000025  00000+0  11147-3 0  9990
2 47228  82.4967 156.5953 0013180 227.1612 132.8361 12.42868711208058
GONETS-M 22             
1 47229U 20091C   25186.89274129  .00000032  00000+0  16268-3 0  9990
2 47229  82.5024 157.3459 0020442 208.1307 151.8669 12.42857251208007
CUBEL                   
1 47448U 21006AM  25186.68934259  .00012593  00000+0  41012-3 0  9994
2 47448  97.2867 236.4938 0007222 353.1600   6.9542 15.31953646246533
ASTROCAST-0103          
1 47487U 21006CC  25186.73951152  .00020564  00000+0  39423-3 0  9994
2 47487  97.3021 245.4883 0002784 342.2599  17.8553 15.48037122247075
ASTROCAST-0104          
1 47519U 21006DK  25186.70987367  .00024113  00000+0  49348-3 0  9995
2 47519  97.2940 243.9243 0003281 319.8590  40.2417 15.46102700247024
ARKTIKA-M 1             
1 47719U 21016A   25186.07563059 -.00000044  00000+0  00000+0 0  9992
2 47719  63.1493 105.3820 7119992 268.6832  16.4515  2.00622402 31822
STARLINK-2342           
1 47883U 21021Z   25186.55810672  .00001344  00000+0  10908-3 0  9994
2 47883  53.0564 306.0367 0001192  89.2339 270.8787 15.06406687238394
GRUS-1B                 
1 47934U 21022C   25186.87028971  .00000487  00000+0  46179-4 0  9997
2 47934  97.5833  75.7230 0018656  49.6819 310.6030 14.97800990234033
2021-022F               
1 47937U 21022F   25186.89775153  .00004923  00000+0  19483-3 0  9999
2 47937  97.4217  84.0639 0009795 234.8470 125.1851 15.25876962236780
WILDTRACKCUBE-SIMBA     
1 47941U 21022K   25186.91782647  .00022525  00000+0  45167-3 0  9999
2 47941  97.4200  92.0690 0008535 201.2764 158.8132 15.46681408237269
ELSA-D                  
1 47944U 21022N   25186.88837935  .00322211  42771-4  83298-3 0  9997
2 47944  97.4184 103.3040 0010977 150.3105 209.8795 15.95013171238010
UNISAT-7                
1 47945U 21022P   25186.67384583  .00008120  00000+0  28394-3 0  9991
2 47945  97.4191  85.2558 0009871 225.4878 134.5556 15.29756943236704
2021-022Q               
1 47946U 21022Q   25186.89604320  .00047155  00000+0  61911-3 0  9993
2 47946  97.4205  97.3825 0007680 163.5290 196.6217 15.58360823237634
2021-022X               
1 47953U 21022X   25186.91633611  .00014384  00000+0  37378-3 0  9997
2 47953  97.4179  88.1651 0009329 219.3930 140.6638 15.39009879236770
2021-022AC              
1 47958U 21022AC  25186.90387628  .00018132  00000+0  42544-3 0  9991
2 47958  97.4135  89.0916 0008818 213.6535 146.4153 15.42069831235932
GLOBAL-9                
1 47971U 21023G   25186.88791548  .00013677  00000+0  35795-3 0  9993
2 47971  44.9857  19.5349 0009940 255.0287 104.9500 15.38682638241533
AII-BRAVO               
1 48270U 21034C   25186.90405746  .00003709  00000+0  30659-3 0  9992
2 48270  97.6027 244.7471 0002195  42.7724 317.3670 14.99536184227655
TYVAK-182A              
1 48271U 21034D   25186.69988945  .00003980  00000+0  31076-3 0  9991
2 48271  97.6265 246.7044 0005542  79.7281 280.4568 15.01677888227753
CSS (TIANHE)            
1 48274U 21035A   25186.64126667  .00019687  00000+0  26067-3 0  9990
2 48274  41.4650 268.6356 0013424 225.8920 134.0813 15.57728308239038
TYVAK-0130              
1 48606U 21041BF  25186.41411677  .00006204  00000+0  28894-3 0  9990
2 48606  53.0318 188.3567 0009294 162.2596 197.8725 15.21175563227498
HAIYANG-2D              
1 48621U 21043A   25186.85586321 -.00000035  00000+0  41943-4 0  9994
2 48621  65.9979  86.9475 0007556 268.1612  91.8591 13.83375022208643
2021-050D               
1 48843U 21050D   25186.92137360  .00005216  00000+0  21823-3 0  9990
2 48843  97.3682 265.0572 0005242 299.4118  60.6595 15.23995345226241
BRIK-II                 
1 48876U 21058F   25186.86042136  .00052007  00000+0  47340-3 0  9995
2 48876  60.6612  53.5392 0010821  22.4111 337.7468 15.67509114224506
TYVAK-0173              
1 48892U 21059P   25186.91392472  .00001626  00000+0  21993-3 0  9998
2 48892  95.9885 344.9092 0011304 118.1759 242.0601 14.79811909216990
TUBIN                   
1 48900U 21059X   25186.93279601  .00035942  00000+0  40438-3 0  9991
2 48900  97.6755 358.3443 0004251 134.7264 225.4340 15.62498924224155
MANDRAKE 2 ABLE         
1 48907U 21059AE  25186.91007148  .00010471  00000+0  26240-3 0  9996
2 48907  97.6903 349.6951 0006436 163.4512 196.6944 15.40242024223585
MANDRAKE 2 BAKER        
1 48908U 21059AF  25186.88425129  .00011710  00000+0  27556-3 0  9994
2 48908  97.6902 350.8852 0005977 147.8954 212.2657 15.42118602223643
PACE-1                  
1 48909U 21059AG  25186.88246663  .00016726  00000+0  33074-3 0  9993
2 48909  97.6791 351.6022 0005840 141.0822 219.0849 15.47179424223807
